CS2                     
1 49262U 21088C   26068.73485932  .00018033  00000+0  56178-3 0  9999
2 49262  97.3928 134.2907 0011637  82.3491 277.9072 15.33255930245263
STARLINK-34885          
1 65328U 25189F   26068.67273220  .00023571  00000+0  80554-3 0  9992
2 65328  53.1575 206.8608 0000966  93.0634 267.0477 15.30195960 31048
